COSMOS 2361 [-]         
1 25590U 98076A   22283.85459296  .00000089  00000+0  80043-4 0  9991
2 25590  82.9305 120.8713 0030325 246.9705 124.3024 13.73029841192071
COSMOS 2378 [-]         
1 26818U 01023A   22284.11443440 -.00000143  00000+0 -16785-3 0  9999
2 26818  82.9257 138.5113 0032846 190.7023 169.3495 13.73976269 70194
COSMOS 2389 [-]         
1 27436U 02026A   22284.00255066  .00000051  00000+0  36952-4 0  9998
2 27436  82.9476  84.4941 0047414  54.3034  63.7234 13.74983558 22304
COSMOS 2398 [-]         
1 27818U 03023A   22283.33045080  .00000486  00000+0  51468-3 0  9998
2 27818  82.9506  46.9521 0032880  93.3953 267.0997 13.72219384969147
COSMOS 2407 [+]         
1 28380U 04028A   22284.26061531  .00000065  00000+0  50814-4 0  9999
2 28380  82.9642 350.6948 0040375  55.0545 305.4579 13.76122009915089
COSMOS 2414 [+]         
1 28521U 05002A   22280.22833380 -.00000005  00000+0 -16909-4 0  9993
2 28521  82.9533 343.7334 0039429 213.7830 146.0822 13.87666838897056
COSMOS 2429 [-]         
1 32052U 07038A   22283.78680313  .00000073  00000+0  59598-4 0  9992
2 32052  82.9767 117.3501 0039190  33.8279 326.5365 13.74971167756852
COSMOS 2454 [-]         
1 35635U 09039A   22280.25725981  .00000056  00000+0  32786-4 0  9996
2 35635  82.9584 329.8517 0019964 154.8128 205.4046 13.89696009670222
COSMOS 2463 [+]         
1 36519U 10017A   22283.91210016  .00000082  00000+0  74899-4 0  9990
2 36519  82.9618 158.0206 0034888 262.6648 109.4003 13.71481528623522
